{
  "schema": "int-temerity-real-tle-snapshot/v1",
  "source": "celestrak",
  "group": "STARLINK",
  "format": "celestrak-gp-json",
  "source_url": "https://celestrak.org/NORAD/elements/gp.php?NAME=STARLINK&FORMAT=JSON",
  "downloaded_at": "2026-07-01T09:46:17.455Z",
  "generated_at": "2026-07-01T09:46:17.588Z",
  "fingerprint": "ee699b79",
  "shell_id": "starlink-real-53.2deg-545km",
  "catalog_count": 10658,
  "shell_count": 1056,
  "selected_count": 658,
  "mean_altitude_km": 545.46,
  "mean_inclination_deg": 53.1605,
  "mean_mean_motion_rev_per_day": 15.09305652,
  "layout": {
    "planes": 47,
    "satellites_per_plane": 14,
    "selection_strategy": "target-shell-raan-clusters-even-slot-sampling",
    "raan_cluster_threshold_deg": 1.5,
    "target_inclination_deg": 53,
    "target_altitude_km": 550,
    "selected_shell_key": "53.0deg-550km",
    "target_shell_distance": 21.03
  },
  "satellites": [
    {
      "satellite_id": "P10-S07",
      "norad_id": 52344,
      "satellite_name": "STARLINK-3851",
      "cospar_id": "2022-045P",
      "shell_id": "starlink-real-53.2deg-545km",
      "plane_id": 9,
      "slot_id": 6,
      "epoch": "2026-06-26T00:24:47.435616",
      "inclination": 53.1615,
      "raan": 72.74180000000001,
      "eccentricity": 0.000142,
      "argument_of_perigee": 91.8612,
      "mean_anomaly": 268.2542000000001,
      "mean_motion": 15.08826282,
      "bstar": -0.000013842,
      "status": "active",
      "raw_omm": {
        "OBJECT_NAME": "STARLINK-3851",
        "OBJECT_ID": "2022-045P",
        "EPOCH": "2026-06-26T00:24:47.435616",
        "MEAN_MOTION": 15.08826282,
        "ECCENTRICITY": 0.000142,
        "INCLINATION": 53.1615,
        "RA_OF_ASC_NODE": 72.7418,
        "ARG_OF_PERICENTER": 91.8612,
        "MEAN_ANOMALY": 268.2542,
        "EPHEMERIS_TYPE": 0,
        "CLASSIFICATION_TYPE": "U",
        "NORAD_CAT_ID": 52344,
        "ELEMENT_SET_NO": 999,
        "REV_AT_EPOCH": 23213,
        "BSTAR": -0.000013842,
        "MEAN_MOTION_DOT": -0.00000508,
        "MEAN_MOTION_DDOT": 0
      },
      "source": "celestrak",
      "source_url": "https://celestrak.org/NORAD/elements/gp.php?NAME=STARLINK&FORMAT=JSON",
      "catalog_fingerprint": "ee699b79"
    },
    {
      "satellite_id": "P10-S08",
      "norad_id": 52363,
      "satellite_name": "STARLINK-3830",
      "cospar_id": "2022-045AJ",
      "shell_id": "starlink-real-53.2deg-545km",
      "plane_id": 9,
      "slot_id": 7,
      "epoch": "2026-06-25T16:53:15.582048",
      "inclination": 53.1584,
      "raan": 74.07650000000001,
      "eccentricity": 0.0001748,
      "argument_of_perigee": 67.84410000000003,
      "mean_anomaly": 292.2736,
      "mean_motion": 15.09867673,
      "bstar": 0.0080222,
      "status": "active",
      "raw_omm": {
        "OBJECT_NAME": "STARLINK-3830",
        "OBJECT_ID": "2022-045AJ",
        "EPOCH": "2026-06-25T16:53:15.582048",
        "MEAN_MOTION": 15.09867673,
        "ECCENTRICITY": 0.0001748,
        "INCLINATION": 53.1584,
        "RA_OF_ASC_NODE": 74.0765,
        "ARG_OF_PERICENTER": 67.8441,
        "MEAN_ANOMALY": 292.2736,
        "EPHEMERIS_TYPE": 0,
        "CLASSIFICATION_TYPE": "U",
        "NORAD_CAT_ID": 52363,
        "ELEMENT_SET_NO": 999,
        "REV_AT_EPOCH": 23209,
        "BSTAR": 0.0080222,
        "MEAN_MOTION_DOT": 0.00133533,
        "MEAN_MOTION_DDOT": 0
      },
      "source": "celestrak",
      "source_url": "https://celestrak.org/NORAD/elements/gp.php?NAME=STARLINK&FORMAT=JSON",
      "catalog_fingerprint": "ee699b79"
    },
    {
      "satellite_id": "P10-S09",
      "norad_id": 52346,
      "satellite_name": "STARLINK-3812",
      "cospar_id": "2022-045R",
      "shell_id": "starlink-real-53.2deg-545km",
      "plane_id": 9,
      "slot_id": 8,
      "epoch": "2026-06-25T22:40:10.303680",
      "inclination": 53.1626,
      "raan": 73.01620000000003,
      "eccentricity": 0.0001823,
      "argument_of_perigee": 115.24149999999997,
      "mean_anomaly": 244.87660000000005,
      "mean_motion": 15.08829283,
      "bstar": 3.1631e-7,
      "status": "active",
      "raw_omm": {
        "OBJECT_NAME": "STARLINK-3812",
        "OBJECT_ID": "2022-045R",
        "EPOCH": "2026-06-25T22:40:10.303680",
        "MEAN_MOTION": 15.08829283,
        "ECCENTRICITY": 0.0001823,
        "INCLINATION": 53.1626,
        "RA_OF_ASC_NODE": 73.0162,
        "ARG_OF_PERICENTER": 115.2415,
        "MEAN_ANOMALY": 244.8766,
        "EPHEMERIS_TYPE": 0,
        "CLASSIFICATION_TYPE": "U",
        "NORAD_CAT_ID": 52346,
        "ELEMENT_SET_NO": 999,
        "REV_AT_EPOCH": 23212,
        "BSTAR": 3.1631e-7,
        "MEAN_MOTION_DOT": -0.00000283,
        "MEAN_MOTION_DDOT": 0
      },
      "source": "celestrak",
      "source_url": "https://celestrak.org/NORAD/elements/gp.php?NAME=STARLINK&FORMAT=JSON",
      "catalog_fingerprint": "ee699b79"
    },
    {
      "satellite_id": "P10-S10",
      "norad_id": 52361,
      "satellite_name": "STARLINK-3728",
      "cospar_id": "2022-045AG",
      "shell_id": "starlink-real-53.2deg-545km",
      "plane_id": 9,
      "slot_id": 9,
      "epoch": "2026-06-25T20:00:01.999008",
      "inclination": 53.1592,
      "raan": 73.3587,
      "eccentricity": 0.0000763,
      "argument_of_perigee": 97.42219999999998,
      "mean_anomaly": 296.9792,
      "mean_motion": 15.15511487,
      "bstar": 0.00106,
      "status": "active",
      "raw_omm": {
        "OBJECT_NAME": "STARLINK-3728",
        "OBJECT_ID": "2022-045AG",
        "EPOCH": "2026-06-25T20:00:01.999008",
        "MEAN_MOTION": 15.15511487,
        "ECCENTRICITY": 0.0000763,
        "INCLINATION": 53.1592,
        "RA_OF_ASC_NODE": 73.3587,
        "ARG_OF_PERICENTER": 97.4222,
        "MEAN_ANOMALY": 296.9792,
        "EPHEMERIS_TYPE": 0,
        "CLASSIFICATION_TYPE": "U",
        "NORAD_CAT_ID": 52361,
        "ELEMENT_SET_NO": 999,
        "REV_AT_EPOCH": 573,
        "BSTAR": 0.00106,
        "MEAN_MOTION_DOT": 0.00020067,
        "MEAN_MOTION_DDOT": 0
      },
      "source": "celestrak",
      "source_url": "https://celestrak.org/NORAD/elements/gp.php?NAME=STARLINK&FORMAT=JSON",
      "catalog_fingerprint": "ee699b79"
    },
    {
      "satellite_id": "P10-S11",
      "norad_id": 52349,
      "satellite_name": "STARLINK-3819",
      "cospar_id": "2022-045U",
      "shell_id": "starlink-real-53.2deg-545km",
      "plane_id": 9,
      "slot_id": 10,
      "epoch": "2026-06-26T04:00:01.998720",
      "inclination": 53.1607,
      "raan": 71.84300000000002,
      "eccentricity": 0.0001783,
      "argument_of_perigee": 68.96940000000001,
      "mean_anomaly": 125.85410000000002,
      "mean_motion": 15.1554346,
      "bstar": 0.0047153,
      "status": "active",
      "raw_omm": {
        "OBJECT_NAME": "STARLINK-3819",
        "OBJECT_ID": "2022-045U",
        "EPOCH": "2026-06-26T04:00:01.998720",
        "MEAN_MOTION": 15.1554346,
        "ECCENTRICITY": 0.0001783,
        "INCLINATION": 53.1607,
        "RA_OF_ASC_NODE": 71.843,
        "ARG_OF_PERICENTER": 68.9694,
        "MEAN_ANOMALY": 125.8541,
        "EPHEMERIS_TYPE": 0,
        "CLASSIFICATION_TYPE": "U",
        "NORAD_CAT_ID": 52349,
        "ELEMENT_SET_NO": 999,
        "REV_AT_EPOCH": 583,
        "BSTAR": 0.0047153,
        "MEAN_MOTION_DOT": 0.00091312,
        "MEAN_MOTION_DDOT": 0
      },
      "source": "celestrak",
      "source_url": "https://celestrak.org/NORAD/elements/gp.php?NAME=STARLINK&FORMAT=JSON",
      "catalog_fingerprint": "ee699b79"
    },
    {
      "satellite_id": "P10-S12",
      "norad_id": 52355,
      "satellite_name": "STARLINK-3877",
      "cospar_id": "2022-045AA",
      "shell_id": "starlink-real-53.2deg-545km",
      "plane_id": 9,
      "slot_id": 11,
      "epoch": "2026-06-25T20:00:01.999008",
      "inclination": 53.1599,
      "raan": 73.4998,
      "eccentricity": 0.0001478,
      "argument_of_perigee": 94.1257,
      "mean_anomaly": 126.82909999999998,
      "mean_motion": 15.08849568,
      "bstar": -0.001283,
      "status": "active",
      "raw_omm": {
        "OBJECT_NAME": "STARLINK-3877",
        "OBJECT_ID": "2022-045AA",
        "EPOCH": "2026-06-25T20:00:01.999008",
        "MEAN_MOTION": 15.08849568,
        "ECCENTRICITY": 0.0001478,
        "INCLINATION": 53.1599,
        "RA_OF_ASC_NODE": 73.4998,
        "ARG_OF_PERICENTER": 94.1257,
        "MEAN_ANOMALY": 126.8291,
        "EPHEMERIS_TYPE": 0,
        "CLASSIFICATION_TYPE": "U",
        "NORAD_CAT_ID": 52355,
        "ELEMENT_SET_NO": 999,
        "REV_AT_EPOCH": 582,
        "BSTAR": -0.001283,
        "MEAN_MOTION_DOT": -0.00020656,
        "MEAN_MOTION_DDOT": 0
      },
      "source": "celestrak",
      "source_url": "https://celestrak.org/NORAD/elements/gp.php?NAME=STARLINK&FORMAT=JSON",
      "catalog_fingerprint": "ee699b79"
    }
  ]
}