[
  {
    "name": "STARLINK-3851",
    "noradId": "52344",
    "line1": "1 52344U 22045P   26177.01721569 -.00000508  00000+0 -13842-4 0  9991",
    "line2": "2 52344  53.1615  72.7418 0001420  91.8612 268.2542 15.08826282232136"
  },
  {
    "name": "STARLINK-3812",
    "noradId": "52346",
    "line1": "1 52346U 22045R   26176.94456370 -.00000283  00000+0  31631-6 0  9996",
    "line2": "2 52346  53.1626  73.0162 0001823 115.2415 244.8766 15.08829283232120"
  },
  {
    "name": "STARLINK-3819",
    "noradId": "52349",
    "line1": "1 52349U 22045U   26177.16668980  .00091312  00000+0  47153-2 0  9990",
    "line2": "2 52349  53.1607  71.8430 0001783  68.9694 125.8541 15.15543460  5837"
  },
  {
    "name": "STARLINK-3877",
    "noradId": "52355",
    "line1": "1 52355U 22045AA  26176.83335647 -.00020656  00000+0 -12830-2 0  9990",
    "line2": "2 52355  53.1599  73.4998 0001478  94.1257 126.8291 15.08849568  5820"
  },
  {
    "name": "STARLINK-3728",
    "noradId": "52361",
    "line1": "1 52361U 22045AG  26176.83335647  .00020067  00000+0  10600-2 0  9994",
    "line2": "2 52361  53.1592  73.3587 0000763  97.4222 296.9792 15.15511487  5736"
  },
  {
    "name": "STARLINK-3830",
    "noradId": "52363",
    "line1": "1 52363U 22045AJ  26176.70365257  .00133533  00000+0  80222-2 0  9992",
    "line2": "2 52363  53.1584  74.0765 0001748  67.8441 292.2736 15.09867673232095"
  }
]